{
    "links": {
        "self": "http://www.neowsapp.com/rest/v1/neo/3662641?api_key=iIulBulltgU6a56xZRHN4H3l9WmuAYTsLGpBGhQ2"
    },
    "id": "3662641",
    "neo_reference_id": "3662641",
    "name": "(2014 DF80)",
    "designation": "2014 DF80",
    "nasa_jpl_url": "http://ssd.jpl.nasa.gov/sbdb.cgi?sstr=3662641",
    "absolute_magnitude_h": 25.7,
    "estimated_diameter": {
        "kilometers": {
            "estimated_diameter_min": 0.0192555078,
            "estimated_diameter_max": 0.0430566244
        },
        "meters": {
            "estimated_diameter_min": 19.2555078188,
            "estimated_diameter_max": 43.0566244241
        },
        "miles": {
            "estimated_diameter_min": 0.0119648141,
            "estimated_diameter_max": 0.0267541378
        },
        "feet": {
            "estimated_diameter_min": 63.1742402722,
            "estimated_diameter_max": 141.2618956756
        }
    },
    "is_potentially_hazardous_asteroid": false,
    "close_approach_data": [
        {
            "close_approach_date": "2010-03-31",
            "close_approach_date_full": "2010-Mar-31 07:55",
            "epoch_date_close_approach": 1270022100000,
            "relative_velocity": {
                "kilometers_per_second": "13.0647699803",
                "kilometers_per_hour": "47033.1719292028",
                "miles_per_hour": "29224.5839690093"
            },
            "miss_distance": {
                "astronomical": "0.3625390534",
                "lunar": "141.0276917726",
                "kilometers": "54235070.180456258",
                "miles": "33700109.9152740404"
            },
            "orbiting_body": "Earth"
        },
        {
            "close_approach_date": "2012-03-17",
            "close_approach_date_full": "2012-Mar-17 20:05",
            "epoch_date_close_approach": 1332014700000,
            "relative_velocity": {
                "kilometers_per_second": "7.8219133173",
                "kilometers_per_hour": "28158.8879422359",
                "miles_per_hour": "17496.837899441"
            },
            "miss_distance": {
                "astronomical": "0.1913217188",
                "lunar": "74.4241486132",
                "kilometers": "28621321.617218956",
                "miles": "17784464.5763593528"
            },
            "orbiting_body": "Earth"
        },
        {
            "close_approach_date": "2014-03-01",
            "close_approach_date_full": "2014-Mar-01 00:55",
            "epoch_date_close_approach": 1393635300000,
            "relative_velocity": {
                "kilometers_per_second": "4.1002173138",
                "kilometers_per_hour": "14760.7823295226",
                "miles_per_hour": "9171.7761091414"
            },
            "miss_distance": {
                "astronomical": "0.0718666312",
                "lunar": "27.9561195368",
                "kilometers": "10751094.951595544",
                "miles": "6680420.6277007472"
            },
            "orbiting_body": "Earth"
        },
        {
            "close_approach_date": "2016-02-11",
            "close_approach_date_full": "2016-Feb-11 05:55",
            "epoch_date_close_approach": 1455170100000,
            "relative_velocity": {
                "kilometers_per_second": "7.0163832952",
                "kilometers_per_hour": "25258.9798628358",
                "miles_per_hour": "15694.9477931048"
            },
            "miss_distance": {
                "astronomical": "0.180615573",
                "lunar": "70.259457897",
                "kilometers": "27019705.00962951",
                "miles": "16789266.164366838"
            },
            "orbiting_body": "Earth"
        },
        {
            "close_approach_date": "2018-01-29",
            "close_approach_date_full": "2018-Jan-29 02:33",
            "epoch_date_close_approach": 1517193180000,
            "relative_velocity": {
                "kilometers_per_second": "12.2409025132",
                "kilometers_per_hour": "44067.2490473994",
                "miles_per_hour": "27381.6748317021"
            },
            "miss_distance": {
                "astronomical": "0.3525916968",
                "lunar": "137.1581700552",
                "kilometers": "52746966.820965816",
                "miles": "32775445.3649516208"
            },
            "orbiting_body": "Earth"
        }
    ],
    "orbital_data": {
        "orbit_id": "11",
        "orbit_determination_date": "2017-04-06 08:42:16",
        "first_observation_date": "2014-02-24",
        "last_observation_date": "2014-03-29",
        "data_arc_in_days": 33,
        "observations_used": 29,
        "orbit_uncertainty": "7",
        "minimum_orbit_intersection": ".071873",
        "jupiter_tisserand_invariant": "4.345",
        "epoch_osculation": "2459000.5",
        "eccentricity": ".3252885129858555",
        "semi_major_axis": "1.572440499924441",
        "inclination": "4.607208890055172",
        "ascending_node_longitude": "166.187973680617",
        "orbital_period": "720.2110136072426",
        "perihelion_distance": "1.060943667945284",
        "perihelion_argument": "348.1192585410211",
        "aphelion_distance": "2.083937331903597",
        "perihelion_time": "2458873.733693947993",
        "mean_anomaly": "63.36458248555664",
        "mean_motion": ".4998535057064833",
        "equinox": "J2000",
        "orbit_class": {
            "orbit_class_type": "AMO",
            "orbit_class_description": "Near-Earth asteroid orbits similar to that of 1221 Amor",
            "orbit_class_range": "1.017 AU < q (perihelion) < 1.3 AU"
        }
    },
    "is_sentry_object": false
}